NUSAT-26 (M SOMERVILLE) 
1 52184U 22033AD  26191.26944178  .00014313  00000+0  32494-3 0  9996
2 52184  97.2341 270.1827 0006808 152.1721 207.9893 15.43121605108269
NUSAT-33 (ALBANIA-2)    
1 55047U 23001AQ  26191.26154618  .00006655  00000+0  24465-3 0  9994
2 55047  97.3064 251.7259 0005226 336.7513  23.3490 15.28210929195832
NUSAT-35 (WILLIAMINA)   
1 55048U 23001AR  26191.30008336  .00010040  00000+0  29045-3 0  9997
2 55048  97.1846 243.4685 0011050  27.4720 332.7106 15.35741484195953
NUSAT-39 (TIKVAH ALPER) 
1 56201U 23054Z   26191.26308773  .00019900  00000+0  38421-3 0  9992
2 56201  97.3101 101.2438 0002575 349.5055  10.6141 15.47839980182026
NUSAT-38 (MARIA AGNESI) 
1 56202U 23054AA  26191.26796075  .00024131  00000+0  41609-3 0  9993
2 56202  97.3039 101.9647 0009581 347.9326  12.1695 15.50986225182089
NUSAT-37 (JOAN CLARKE)  
1 56203U 23054AB  26191.28828866  .00038309  00000+0  48662-3 0  9998
2 56203  97.2609  98.8319 0007215 157.6769 202.4803 15.59285569182246
NUSAT-40 (C SHOEMAKER)  
1 56943U 23084M   26191.16310228  .00108694  00000+0  54679-3 0  9997
2 56943  97.4859 339.5821 0004448 197.6413 162.4702 15.81370743172431
NUSAT-41 (C PAYNE-G)    
1 56944U 23084N   26191.34309877  .00007637  00000+0  26482-3 0  9992
2 56944  97.5536 328.4307 0006093 230.1830 129.8874 15.30088559171324
NUSAT-42 (M WONENBURGER)
1 56966U 23084AL  26191.33926466  .00016309  00000+0  33153-3 0  9993
2 56966  97.5735 336.4390 0006483 161.6536 198.4948 15.46370632171657
NUSAT-44 (MARIA MITCHE*)
1 59122U 24043AA  26191.36335358  .00007139  00000+0  25003-3 0  9999
2 59122  97.5469 331.9814 0006201 145.5586 214.6057 15.29787626130814
NUSAT-50 (NANCY ROMAN)  
1 60493U 24149AB  26191.18899609  .00006833  00000+0  23592-3 0  9994
2 60493  97.3785 272.2892 0004801 113.5193 246.6553 15.30262915105642
NUSAT-48 (HENRIETTA LE*)
1 60498U 24149AG  26191.17786951  .00006755  00000+0  23361-3 0  9990
2 60498  97.3914 272.5613 0004333 173.6918 186.4378 15.30220707105657
NUSAT-49 (KLARA DAN VO*)
1 60500U 24149AJ  26189.78137068  .00006275  00000+0  21664-3 0  9998
2 60500  97.3775 270.9235 0001819 182.0121 178.1113 15.30310950105435
NUSAT-45 (UZMASAT-1)    
1 62640U 25009AH  26191.20892885  .00006263  00000+0  21609-3 0  9992
2 62640  97.3591 272.2023 0001326 194.7805 165.3397 15.30328008 82440
NUSAT-52                
1 66692U 25276AC  26190.99336555  .00003449  00000+0  16326-3 0  9994
2 66692  97.4200 264.1644 0001776 314.4892  45.6197 15.20005716 33883
NUSAT-51 (YVONNE BRILL) 
1 66740U 25276CC  26191.19376283  .00004086  00000+0  18997-3 0  9997
2 66740  97.4205 264.5002 0001577 269.2972  90.8083 15.20530641 33920
