{"fetched_at":"2026-07-10T18:08:22.509Z","source":"https://celestrak.org/NORAD/elements/gp.php?NAME=NUSAT&FORMAT=JSON","constellation":"satellogic","records":[{"OBJECT_NAME":"NUSAT-26 (M SOMERVILLE)","OBJECT_ID":"2022-033AD","EPOCH":"2026-07-10T06:27:59.769792","CLASSIFICATION_TYPE":"U","MEAN_MOTION":15.43121605,"ECCENTRICITY":0.00068089,"INCLINATION":97.2341,"RA_OF_ASC_NODE":270.1827,"ARG_OF_PERICENTER":152.1721,"MEAN_ANOMALY":207.9893,"EPHEMERIS_TYPE":0,"NORAD_CAT_ID":52184,"ELEMENT_SET_NO":999,"REV_AT_EPOCH":10826,"BSTAR":0.00032493851,"MEAN_MOTION_DOT":0.00014313,"MEAN_MOTION_DDOT":0},{"OBJECT_NAME":"NUSAT-33 (ALBANIA-2)","OBJECT_ID":"2023-001AQ","EPOCH":"2026-07-10T06:16:37.589952","CLASSIFICATION_TYPE":"U","MEAN_MOTION":15.28210929,"ECCENTRICITY":0.00052262,"INCLINATION":97.3064,"RA_OF_ASC_NODE":251.7259,"ARG_OF_PERICENTER":336.7513,"MEAN_ANOMALY":23.349,"EPHEMERIS_TYPE":0,"NORAD_CAT_ID":55047,"ELEMENT_SET_NO":999,"REV_AT_EPOCH":19583,"BSTAR":0.00024465402,"MEAN_MOTION_DOT":0.00006655,"MEAN_MOTION_DDOT":0},{"OBJECT_NAME":"NUSAT-35 (WILLIAMINA)","OBJECT_ID":"2023-001AR","EPOCH":"2026-07-10T07:12:07.202304","CLASSIFICATION_TYPE":"U","MEAN_MOTION":15.35741484,"ECCENTRICITY":0.00110509,"INCLINATION":97.1846,"RA_OF_ASC_NODE":243.4685,"ARG_OF_PERICENTER":27.472,"MEAN_ANOMALY":332.7106,"EPHEMERIS_TYPE":0,"NORAD_CAT_ID":55048,"ELEMENT_SET_NO":999,"REV_AT_EPOCH":19595,"BSTAR":0.00029044611,"MEAN_MOTION_DOT":0.0001004,"MEAN_MOTION_DDOT":0},{"OBJECT_NAME":"NUSAT-39 (TIKVAH ALPER)","OBJECT_ID":"2023-054Z","EPOCH":"2026-07-10T06:18:50.779872","CLASSIFICATION_TYPE":"U","MEAN_MOTION":15.4783998,"ECCENTRICITY":0.0002575,"INCLINATION":97.3101,"RA_OF_ASC_NODE":101.2438,"ARG_OF_PERICENTER":349.5055,"MEAN_ANOMALY":10.6141,"EPHEMERIS_TYPE":0,"NORAD_CAT_ID":56201,"ELEMENT_SET_NO":999,"REV_AT_EPOCH":18202,"BSTAR":0.000384206,"MEAN_MOTION_DOT":0.000199,"MEAN_MOTION_DDOT":0},{"OBJECT_NAME":"NUSAT-38 (MARIA AGNESI)","OBJECT_ID":"2023-054AA","EPOCH":"2026-07-10T06:25:51.808800","CLASSIFICATION_TYPE":"U","MEAN_MOTION":15.50986225,"ECCENTRICITY":0.0009581,"INCLINATION":97.3039,"RA_OF_ASC_NODE":101.9647,"ARG_OF_PERICENTER":347.9326,"MEAN_ANOMALY":12.1695,"EPHEMERIS_TYPE":0,"NORAD_CAT_ID":56202,"ELEMENT_SET_NO":999,"REV_AT_EPOCH":18208,"BSTAR":0.00041609496,"MEAN_MOTION_DOT":0.00024131,"MEAN_MOTION_DDOT":0},{"OBJECT_NAME":"NUSAT-37 (JOAN CLARKE)","OBJECT_ID":"2023-054AB","EPOCH":"2026-07-10T06:55:08.140224","CLASSIFICATION_TYPE":"U","MEAN_MOTION":15.59285569,"ECCENTRICITY":0.00072155,"INCLINATION":97.2609,"RA_OF_ASC_NODE":98.8319,"ARG_OF_PERICENTER":157.6769,"MEAN_ANOMALY":202.4803,"EPHEMERIS_TYPE":0,"NORAD_CAT_ID":56203,"ELEMENT_SET_NO":999,"REV_AT_EPOCH":18224,"BSTAR":0.00048662345,"MEAN_MOTION_DOT":0.00038309,"MEAN_MOTION_DDOT":0},{"OBJECT_NAME":"NUSAT-40 (C SHOEMAKER)","OBJECT_ID":"2023-084M","EPOCH":"2026-07-10T03:54:52.036992","CLASSIFICATION_TYPE":"U","MEAN_MOTION":15.81370743,"ECCENTRICITY":0.00044481,"INCLINATION":97.4859,"RA_OF_ASC_NODE":339.5821,"ARG_OF_PERICENTER":197.6413,"MEAN_ANOMALY":162.4702,"EPHEMERIS_TYPE":0,"NORAD_CAT_ID":56943,"ELEMENT_SET_NO":999,"REV_AT_EPOCH":17243,"BSTAR":0.00054679003,"MEAN_MOTION_DOT":0.00108694,"MEAN_MOTION_DDOT":0},{"OBJECT_NAME":"NUSAT-41 (C PAYNE-G)","OBJECT_ID":"2023-084N","EPOCH":"2026-07-10T08:14:03.733728","CLASSIFICATION_TYPE":"U","MEAN_MOTION":15.30088559,"ECCENTRICITY":0.0006093,"INCLINATION":97.5536,"RA_OF_ASC_NODE":328.4307,"ARG_OF_PERICENTER":230.183,"MEAN_ANOMALY":129.8874,"EPHEMERIS_TYPE":0,"NORAD_CAT_ID":56944,"ELEMENT_SET_NO":999,"REV_AT_EPOCH":17132,"BSTAR":0.00026481958,"MEAN_MOTION_DOT":0.00007637,"MEAN_MOTION_DDOT":0},{"OBJECT_NAME":"NUSAT-42 (M WONENBURGER)","OBJECT_ID":"2023-084AL","EPOCH":"2026-07-10T08:08:32.466624","CLASSIFICATION_TYPE":"U","MEAN_MOTION":15.46370632,"ECCENTRICITY":0.0006483,"INCLINATION":97.5735,"RA_OF_ASC_NODE":336.439,"ARG_OF_PERICENTER":161.6536,"MEAN_ANOMALY":198.4948,"EPHEMERIS_TYPE":0,"NORAD_CAT_ID":56966,"ELEMENT_SET_NO":999,"REV_AT_EPOCH":17165,"BSTAR":0.0003315342,"MEAN_MOTION_DOT":0.00016309,"MEAN_MOTION_DDOT":0},{"OBJECT_NAME":"NUSAT-44 (MARIA MITCHELL)","OBJECT_ID":"2024-043AA","EPOCH":"2026-07-10T08:43:13.749312","CLASSIFICATION_TYPE":"U","MEAN_MOTION":15.29787626,"ECCENTRICITY":0.00062018,"INCLINATION":97.5469,"RA_OF_ASC_NODE":331.9814,"ARG_OF_PERICENTER":145.5586,"MEAN_ANOMALY":214.6057,"EPHEMERIS_TYPE":0,"NORAD_CAT_ID":59122,"ELEMENT_SET_NO":999,"REV_AT_EPOCH":13081,"BSTAR":0.00025002978,"MEAN_MOTION_DOT":0.00007139,"MEAN_MOTION_DDOT":0},{"OBJECT_NAME":"NUSAT-50 (NANCY ROMAN)","OBJECT_ID":"2024-149AB","EPOCH":"2026-07-10T04:32:09.262176","CLASSIFICATION_TYPE":"U","MEAN_MOTION":15.30262915,"ECCENTRICITY":0.00048011,"INCLINATION":97.3785,"RA_OF_ASC_NODE":272.2892,"ARG_OF_PERICENTER":113.5193,"MEAN_ANOMALY":246.6553,"EPHEMERIS_TYPE":0,"NORAD_CAT_ID":60493,"ELEMENT_SET_NO":999,"REV_AT_EPOCH":10564,"BSTAR":0.00023592323,"MEAN_MOTION_DOT":0.00006833,"MEAN_MOTION_DDOT":0},{"OBJECT_NAME":"NUSAT-48 (HENRIETTA LEAVITT)","OBJECT_ID":"2024-149AG","EPOCH":"2026-07-10T04:16:07.925664","CLASSIFICATION_TYPE":"U","MEAN_MOTION":15.30220707,"ECCENTRICITY":0.00043336,"INCLINATION":97.3914,"RA_OF_ASC_NODE":272.5613,"ARG_OF_PERICENTER":173.6918,"MEAN_ANOMALY":186.4378,"EPHEMERIS_TYPE":0,"NORAD_CAT_ID":60498,"ELEMENT_SET_NO":999,"REV_AT_EPOCH":10565,"BSTAR":0.00023360515,"MEAN_MOTION_DOT":0.00006755,"MEAN_MOTION_DDOT":0},{"OBJECT_NAME":"NUSAT-49 (KLARA DAN VON NEUMANN)","OBJECT_ID":"2024-149AJ","EPOCH":"2026-07-08T18:45:10.426752","CLASSIFICATION_TYPE":"U","MEAN_MOTION":15.3031095,"ECCENTRICITY":0.00018193,"INCLINATION":97.3775,"RA_OF_ASC_NODE":270.9235,"ARG_OF_PERICENTER":182.0121,"MEAN_ANOMALY":178.1113,"EPHEMERIS_TYPE":0,"NORAD_CAT_ID":60500,"ELEMENT_SET_NO":999,"REV_AT_EPOCH":10543,"BSTAR":0.00021663565,"MEAN_MOTION_DOT":0.00006275,"MEAN_MOTION_DDOT":0},{"OBJECT_NAME":"NUSAT-45 (UZMASAT-1)","OBJECT_ID":"2025-009AH","EPOCH":"2026-07-10T05:00:51.452640","CLASSIFICATION_TYPE":"U","MEAN_MOTION":15.30328008,"ECCENTRICITY":0.0001326,"INCLINATION":97.3591,"RA_OF_ASC_NODE":272.2023,"ARG_OF_PERICENTER":194.7805,"MEAN_ANOMALY":165.3397,"EPHEMERIS_TYPE":0,"NORAD_CAT_ID":62640,"ELEMENT_SET_NO":999,"REV_AT_EPOCH":8244,"BSTAR":0.00021608833,"MEAN_MOTION_DOT":0.00006263,"MEAN_MOTION_DDOT":0},{"OBJECT_NAME":"NUSAT-52","OBJECT_ID":"2025-276AC","EPOCH":"2026-07-09T23:50:26.783520","CLASSIFICATION_TYPE":"U","MEAN_MOTION":15.20005716,"ECCENTRICITY":0.00017769,"INCLINATION":97.42,"RA_OF_ASC_NODE":264.1644,"ARG_OF_PERICENTER":314.4892,"MEAN_ANOMALY":45.6197,"EPHEMERIS_TYPE":0,"NORAD_CAT_ID":66692,"ELEMENT_SET_NO":999,"REV_AT_EPOCH":3388,"BSTAR":0.00016326223,"MEAN_MOTION_DOT":0.00003449,"MEAN_MOTION_DDOT":0},{"OBJECT_NAME":"NUSAT-51 (YVONNE BRILL)","OBJECT_ID":"2025-276CC","EPOCH":"2026-07-10T04:39:01.108512","CLASSIFICATION_TYPE":"U","MEAN_MOTION":15.20530641,"ECCENTRICITY":0.00015778,"INCLINATION":97.4205,"RA_OF_ASC_NODE":264.5002,"ARG_OF_PERICENTER":269.2972,"MEAN_ANOMALY":90.8083,"EPHEMERIS_TYPE":0,"NORAD_CAT_ID":66740,"ELEMENT_SET_NO":999,"REV_AT_EPOCH":3392,"BSTAR":0.00018996736,"MEAN_MOTION_DOT":0.00004086,"MEAN_MOTION_DDOT":0}]}
